STARLINK-31948          
1 59941U 24106V   26068.06481903  .00000949  00000+0  44005-4 0  9992
2 59941  42.9926 332.8110 0001731  11.3368 348.7522 15.27573686100466
BANDWAGON-4 OBJECT P    
1 66306U 25248P   26067.98083108  .00022647  00000+0  92291-3 0  9996
2 66306  45.4037 295.4322 0012078 209.3167 150.7044 15.24098352 19290
